CCSDS_OMM_VERS = 2.0
CREATION_DATE  = 
ORIGINATOR     = 

OBJECT_NAME    = STARLINK-35858
OBJECT_ID      = 2025-280N
CENTER_NAME    = EARTH
REF_FRAME      = TEME
TIME_SYSTEM    = UTC
MEAN_ELEMENT_THEORY = SGP/SGP4

EPOCH          = 2025-12-28T06:17:21.422400
MEAN_MOTION    = 15.52582349
ECCENTRICITY   = .0003352
INCLINATION    = 70.0000
RA_OF_ASC_NODE = 155.8723
ARG_OF_PERICENTER = 270.3593
MEAN_ANOMALY   = 89.7210

EPHEMERIS_TYPE = 0
CLASSIFICATION_TYPE = U
NORAD_CAT_ID   = 66833
ELEMENT_SET_NO = 999
REV_AT_EPOCH   = 534
BSTAR          = .28272E-2
MEAN_MOTION_DOT = .178124E-2
MEAN_MOTION_DDOT = 0

CCSDS_OMM_VERS = 2.0
CREATION_DATE  = 
ORIGINATOR     = 

OBJECT_NAME    = STARLINK-35840
OBJECT_ID      = 2025-280P
CENTER_NAME    = EARTH
REF_FRAME      = TEME
TIME_SYSTEM    = UTC
MEAN_ELEMENT_THEORY = SGP/SGP4

EPOCH          = 2025-12-28T12:27:52.275456
MEAN_MOTION    = 15.52786536
ECCENTRICITY   = .00031299
INCLINATION    = 70.0005
RA_OF_ASC_NODE = 155.1643
ARG_OF_PERICENTER = 274.9905
MEAN_ANOMALY   = 85.0925

EPHEMERIS_TYPE = 0
CLASSIFICATION_TYPE = U
NORAD_CAT_ID   = 66834
ELEMENT_SET_NO = 999
REV_AT_EPOCH   = 538
BSTAR          = .21551949E-2
MEAN_MOTION_DOT = .136013E-2
MEAN_MOTION_DDOT = 0

CCSDS_OMM_VERS = 2.0
CREATION_DATE  = 
ORIGINATOR     = 

OBJECT_NAME    = STARLINK-35890
OBJECT_ID      = 2025-280Q
CENTER_NAME    = EARTH
REF_FRAME      = TEME
TIME_SYSTEM    = UTC
MEAN_ELEMENT_THEORY = SGP/SGP4

EPOCH          = 2025-12-28T09:21:57.348576
MEAN_MOTION    = 15.52555433
ECCENTRICITY   = .00037331
INCLINATION    = 70.0004
RA_OF_ASC_NODE = 155.5158
ARG_OF_PERICENTER = 243.8103
MEAN_ANOMALY   = 116.2701

EPHEMERIS_TYPE = 0
CLASSIFICATION_TYPE = U
NORAD_CAT_ID   = 66835
ELEMENT_SET_NO = 999
REV_AT_EPOCH   = 536
BSTAR          = .22423982E-2
MEAN_MOTION_DOT = .14044E-2
MEAN_MOTION_DDOT = 0

CCSDS_OMM_VERS = 2.0
CREATION_DATE  = 
ORIGINATOR     = 

OBJECT_NAME    = STARLINK-35838
OBJECT_ID      = 2025-280R
CENTER_NAME    = EARTH
REF_FRAME      = TEME
TIME_SYSTEM    = UTC
MEAN_ELEMENT_THEORY = SGP/SGP4

EPOCH          = 2025-12-28T09:21:27.114624
MEAN_MOTION    = 15.52601420
ECCENTRICITY   = .00028782
INCLINATION    = 70.0003
RA_OF_ASC_NODE = 155.5142
ARG_OF_PERICENTER = 254.4481
MEAN_ANOMALY   = 105.6388

EPHEMERIS_TYPE = 0
CLASSIFICATION_TYPE = U
NORAD_CAT_ID   = 66836
ELEMENT_SET_NO = 999
REV_AT_EPOCH   = 536
BSTAR          = .27539935E-2
MEAN_MOTION_DOT = .173516E-2
MEAN_MOTION_DDOT = 0

CCSDS_OMM_VERS = 2.0
CREATION_DATE  = 
ORIGINATOR     = 

OBJECT_NAME    = STARLINK-35729
OBJECT_ID      = 2025-280S
CENTER_NAME    = EARTH
REF_FRAME      = TEME
TIME_SYSTEM    = UTC
MEAN_ELEMENT_THEORY = SGP/SGP4

EPOCH          = 2025-12-27T14:47:07.462176
MEAN_MOTION    = 15.53075151
ECCENTRICITY   = .0004565
INCLINATION    = 70.0006
RA_OF_ASC_NODE = 157.6293
ARG_OF_PERICENTER = 276.0248
MEAN_ANOMALY   = 84.0419

EPHEMERIS_TYPE = 0
CLASSIFICATION_TYPE = U
NORAD_CAT_ID   = 66837
ELEMENT_SET_NO = 999
REV_AT_EPOCH   = 524
BSTAR          = -.98165104E-2
MEAN_MOTION_DOT = -.574104E-2
MEAN_MOTION_DDOT = 0

CCSDS_OMM_VERS = 2.0
CREATION_DATE  = 
ORIGINATOR     = 

OBJECT_NAME    = STARLINK-35886
OBJECT_ID      = 2025-280T
CENTER_NAME    = EARTH
REF_FRAME      = TEME
TIME_SYSTEM    = UTC
MEAN_ELEMENT_THEORY = SGP/SGP4

EPOCH          = 2025-12-28T09:19:57.677664
MEAN_MOTION    = 15.52663813
ECCENTRICITY   = .00033569
INCLINATION    = 70.0004
RA_OF_ASC_NODE = 155.5100
ARG_OF_PERICENTER = 288.7349
MEAN_ANOMALY   = 71.3474

EPHEMERIS_TYPE = 0
CLASSIFICATION_TYPE = U
NORAD_CAT_ID   = 66838
ELEMENT_SET_NO = 999
REV_AT_EPOCH   = 536
BSTAR          = .28991422E-2
MEAN_MOTION_DOT = .183314E-2
MEAN_MOTION_DDOT = 0

CCSDS_OMM_VERS = 2.0
CREATION_DATE  = 
ORIGINATOR     = 

OBJECT_NAME    = STARLINK-35717
OBJECT_ID      = 2025-280U
CENTER_NAME    = EARTH
REF_FRAME      = TEME
TIME_SYSTEM    = UTC
MEAN_ELEMENT_THEORY = SGP/SGP4

EPOCH          = 2025-12-28T12:25:31.306080
MEAN_MOTION    = 15.52546222
ECCENTRICITY   = .00077204
INCLINATION    = 70.0003
RA_OF_ASC_NODE = 155.1567
ARG_OF_PERICENTER = 309.1278
MEAN_ANOMALY   = 50.9222

EPHEMERIS_TYPE = 0
CLASSIFICATION_TYPE = U
NORAD_CAT_ID   = 66839
ELEMENT_SET_NO = 999
REV_AT_EPOCH   = 538
BSTAR          = .23190381E-2
MEAN_MOTION_DOT = .145407E-2
MEAN_MOTION_DDOT = 0

CCSDS_OMM_VERS = 2.0
CREATION_DATE  = 
ORIGINATOR     = 

OBJECT_NAME    = STARLINK-35837
OBJECT_ID      = 2025-280V
CENTER_NAME    = EARTH
REF_FRAME      = TEME
TIME_SYSTEM    = UTC
MEAN_ELEMENT_THEORY = SGP/SGP4

EPOCH          = 2025-12-28T16:00:01.999584
MEAN_MOTION    = 15.47098136
ECCENTRICITY   = .00035853
INCLINATION    = 70.0004
RA_OF_ASC_NODE = 154.7587
ARG_OF_PERICENTER = 278.0232
MEAN_ANOMALY   = 184.6761

EPHEMERIS_TYPE = 0
CLASSIFICATION_TYPE = U
NORAD_CAT_ID   = 66840
ELEMENT_SET_NO = 999
REV_AT_EPOCH   = 545
BSTAR          = -.45300818E-1
MEAN_MOTION_DOT = -.205107E-1
MEAN_MOTION_DDOT = 0

CCSDS_OMM_VERS = 2.0
CREATION_DATE  = 
ORIGINATOR     = 

OBJECT_NAME    = STARLINK-35715
OBJECT_ID      = 2025-280W
CENTER_NAME    = EARTH
REF_FRAME      = TEME
TIME_SYSTEM    = UTC
MEAN_ELEMENT_THEORY = SGP/SGP4

EPOCH          = 2025-12-28T16:00:01.999584
MEAN_MOTION    = 15.47106249
ECCENTRICITY   = .00035858
INCLINATION    = 70.0002
RA_OF_ASC_NODE = 154.7564
ARG_OF_PERICENTER = 276.4414
MEAN_ANOMALY   = 188.1879

EPHEMERIS_TYPE = 0
CLASSIFICATION_TYPE = U
NORAD_CAT_ID   = 66841
ELEMENT_SET_NO = 999
REV_AT_EPOCH   = 545
BSTAR          = -.45418161E-1
MEAN_MOTION_DOT = -.2056322E-1
MEAN_MOTION_DDOT = 0

CCSDS_OMM_VERS = 2.0
CREATION_DATE  = 
ORIGINATOR     = 

OBJECT_NAME    = STARLINK-35769
OBJECT_ID      = 2025-280X
CENTER_NAME    = EARTH
REF_FRAME      = TEME
TIME_SYSTEM    = UTC
MEAN_ELEMENT_THEORY = SGP/SGP4

EPOCH          = 2025-12-28T10:51:06.103008
MEAN_MOTION    = 15.52911657
ECCENTRICITY   = .00112301
INCLINATION    = 70.0000
RA_OF_ASC_NODE = 155.3292
ARG_OF_PERICENTER = 230.9780
MEAN_ANOMALY   = 129.0408

EPHEMERIS_TYPE = 0
CLASSIFICATION_TYPE = U
NORAD_CAT_ID   = 66842
ELEMENT_SET_NO = 999
REV_AT_EPOCH   = 537
BSTAR          = .5242476E-2
MEAN_MOTION_DOT = .34198E-2
MEAN_MOTION_DDOT = 0

CCSDS_OMM_VERS = 2.0
CREATION_DATE  = 
ORIGINATOR     = 

OBJECT_NAME    = STARLINK-35997
OBJECT_ID      = 2025-280Y
CENTER_NAME    = EARTH
REF_FRAME      = TEME
TIME_SYSTEM    = UTC
MEAN_ELEMENT_THEORY = SGP/SGP4

EPOCH          = 2025-12-28T12:23:03.822144
MEAN_MOTION    = 15.52407036
ECCENTRICITY   = .00090221
INCLINATION    = 70.0005
RA_OF_ASC_NODE = 155.1498
ARG_OF_PERICENTER = 317.0211
MEAN_ANOMALY   = 43.0270

EPHEMERIS_TYPE = 0
CLASSIFICATION_TYPE = U
NORAD_CAT_ID   = 66843
ELEMENT_SET_NO = 999
REV_AT_EPOCH   = 538
BSTAR          = .16941725E-2
MEAN_MOTION_DOT = .105165E-2
MEAN_MOTION_DDOT = 0

CCSDS_OMM_VERS = 2.0
CREATION_DATE  = 
ORIGINATOR     = 

OBJECT_NAME    = STARLINK-36073
OBJECT_ID      = 2025-280Z
CENTER_NAME    = EARTH
REF_FRAME      = TEME
TIME_SYSTEM    = UTC
MEAN_ELEMENT_THEORY = SGP/SGP4

EPOCH          = 2025-12-28T16:00:01.999584
MEAN_MOTION    = 15.49700586
ECCENTRICITY   = .00036074
INCLINATION    = 70.0004
RA_OF_ASC_NODE = 154.7442
ARG_OF_PERICENTER = 276.7458
MEAN_ANOMALY   = 200.2132

EPHEMERIS_TYPE = 0
CLASSIFICATION_TYPE = U
NORAD_CAT_ID   = 66844
ELEMENT_SET_NO = 999
REV_AT_EPOCH   = 545
BSTAR          = -.41485379E-1
MEAN_MOTION_DOT = -.2057605E-1
MEAN_MOTION_DDOT = 0

