STARLINK-35858          
1 66833U 25280N   25362.26205350  .00178124  00000+0  28272-2 0  9999
2 66833  70.0000 155.8723 0003352 270.3593  89.7210 15.52582349  5341
STARLINK-35840          
1 66834U 25280P   25362.51935504  .00136013  00000+0  21552-2 0  9994
2 66834  70.0005 155.1643 0003129 274.9905  85.0925 15.52786536  5380
STARLINK-35890          
1 66835U 25280Q   25362.39024709  .00140440  00000+0  22424-2 0  9995
2 66835  70.0004 155.5158 0003733 243.8103 116.2701 15.52555433  5368
STARLINK-35838          
1 66836U 25280R   25362.38989716  .00173516  00000+0  27540-2 0  9997
2 66836  70.0003 155.5142 0002878 254.4481 105.6388 15.52601420  5368
STARLINK-35729          
1 66837U 25280S   25361.61605859 -.00574104  00000+0 -98165-2 0  9997
2 66837  70.0006 157.6293 0004565 276.0248  84.0419 15.53075151  5247
STARLINK-35886          
1 66838U 25280T   25362.38886201  .00183314  00000+0  28991-2 0  9992
2 66838  70.0004 155.5100 0003356 288.7349  71.3474 15.52663813  5369
STARLINK-35717          
1 66839U 25280U   25362.51772345  .00145407  00000+0  23190-2 0  9998
2 66839  70.0003 155.1567 0007720 309.1278  50.9222 15.52546222  5380
STARLINK-35837          
1 66840U 25280V   25362.66668981 -.02051070  00000+0 -45301-1 0  9999
2 66840  70.0004 154.7587 0003585 278.0232 184.6761 15.47098136  5450
STARLINK-35715          
1 66841U 25280W   25362.66668981 -.02056322  00000+0 -45418-1 0  9994
2 66841  70.0002 154.7564 0003585 276.4414 188.1879 15.47106249  5452
STARLINK-35769          
1 66842U 25280X   25362.45215397  .00341980  00000+0  52425-2 0  9991
2 66842  70.0000 155.3292 0011230 230.9780 129.0408 15.52911657  5379
STARLINK-35997          
1 66843U 25280Y   25362.51601646  .00105165  00000+0  16942-2 0  9992
2 66843  70.0005 155.1498 0009022 317.0211  43.0270 15.52407036  5387
STARLINK-36073          
1 66844U 25280Z   25362.66668981 -.02057605  00000+0 -41485-1 0  9992
2 66844  70.0004 154.7442 0003607 276.7458 200.2132 15.49700586  5452
